ASTROCAST-0401          
1 55110U 23001DF  26068.71172895  .00009750  00000+0  37868-3 0  9995
2 55110  97.5547 160.5206 0008142 188.4231 171.6872 15.26258462176022
STARLINK-36462          
1 67321U 26002S   26067.10493762  .00041128  00000+0  14935-2 0  9991
2 67321  42.9979 334.4660 0001265 246.6854 113.3865 15.27630310 10833
